IRIDIUM 170             
1 43930U 19002J   21226.66495027  .00000273  00000-0  39352-4 0  9991
2 43930  86.6129  12.2774 0002413  97.4817 262.6675 14.72246978139201
IRIDIUM 167             
1 43931U 19002K   21226.49980191  .00000077  00000-0  20470-4 0  9997
2 43931  86.3995  12.3047 0002329 111.4256 248.7188 14.34217511135595
RAPIS-1                 
1 43932U 19003A   21226.36564146  .00000673  00000-0  46586-4 0  9991
2 43932  97.1908 250.3396 0005303  73.6202 286.5610 15.08696136138472
ORIGAMISAT-1            
1 43933U 19003B   21226.52864475  .00010566  00000-0  38350-3 0  9999
2 43933  97.1789 265.8052 0016041 178.8354 181.2927 15.28368320142972
RISESAT                 
1 43934U 19003C   21226.77884293  .00000378  00000-0  19118-4 0  9999
2 43934  97.1744 264.7633 0016478 175.7021 295.3554 15.22512439142933
MICRODRAGON             
1 43935U 19003D   21226.72072749  .00000986  00000-0  44071-4 0  9991
2 43935  97.1769 265.6350 0017937 175.0143 185.1276 15.23423883142972
NEXUS (FO-99)           
1 43937U 19003F   21226.35866182  .00001622  00000-0  65341-4 0  9995
2 43937  97.1723 267.2155 0023558 162.8423 197.3618 15.26002558143090
ALE-1                   
1 43938U 19003G   21226.54286767  .00004837  00000-0  17261-3 0  9990
2 43938  97.1852 269.1770 0023184 162.3004 197.9050 15.29075536143177
AOBA VELOX-IV           
1 43940U 19003J   21226.41187867  .00003060  00000-0  11473-3 0  9996
2 43940  97.1735 268.3226 0022952 158.8450 201.3744 15.27733750143159
LINGQUE 1A              
1 43942U 19005A   21226.83918616  .00006676  00000-0  28186-3 0  9995
2 43942  97.5141 328.2385 0012656 288.5058 222.5100 15.23538447141985
JILIN-01-09             
1 43943U 19005B   21226.83875766  .00000051  00000-0  66343-5 0  9994
2 43943  97.5080 321.3076 0013168 304.5236 201.8816 15.12522601141522
XIAOXIANG 3             
1 43944U 19005C   21226.85821799  .00001314  00000-0  76188-4 0  9994
2 43944  97.5081 322.0052 0010954 300.8924 195.8286 15.13887664141560
JILIN-01-10             
1 43946U 19005E   21226.86295184  .00000664  00000-0  41735-4 0  9997
2 43946  97.5080 321.3827 0018101 296.0974 172.7029 15.12522685141462
UNITE                   
1 44031U 98067PX  21226.44624229  .00056861  00000-0  23400-3 0  9996
2 44031  51.6382 323.9056 0003063 326.8051  33.2760 15.85377080144851
HELLAS-SAT 4 & SGS-1    
1 44034U 19007A   21226.56244772  .00000148  00000-0  00000-0 0  9995
2 44034   0.0679 121.9576 0006270  26.4795  56.2218  1.00269588  9639
GSAT-31                 
1 44035U 19007B   21226.56419243  .00000121  00000-0  00000-0 0  9994
2 44035   0.1151 275.2501 0001318 279.5916  19.3271  1.00272462  9253
2018-092C               
1 44041U 18092C   21226.82123659  .00001688  00000-0  51682-4 0  9991
2 44041  51.6399 133.9433 0004066  78.5440  29.3990 15.39932638141331
2018-092D               
1 44042U 18092D   21226.82148101  .00001723  00000-0  52830-4 0  9997
2 44042  51.6391 134.6734 0003870  77.3822  30.1992 15.39759324154288
CHEFSAT 2               
1 44044U 18092E   21226.29775087  .00007150  00000-0  16564-3 0  9992
2 44044  51.6375 135.8937 0009724  63.7233 296.4751 15.43530790140508
EGYPTSAT-A (MISRSAT-A)  
1 44047U 19008A   21226.81332305  .00000064  00000-0  17890-4 0  9994
2 44047  98.0114 290.9544 0001337  90.2111 269.9235 14.72328056133185
NUSANTARA SATU          
1 44048U 19009A   21226.73452022 -.00000239  00000-0  00000+0 0  9991
2 44048   0.0161  94.6553 0002124  46.6133 232.5169  1.00271620  9055
ONEWEB-0012             
1 44057U 19010A   21226.51546436  .00057108  00000-0  13430+0 0  9999
2 44057  87.6074 249.2664 0003970 103.4253 256.7324 13.23344712118755
ONEWEB-0010             
1 44058U 19010B   21226.52811652 -.00006703  00000-0 -15982-1 0  9999
2 44058  87.5880 249.2380 0002484  90.3416 269.8002 13.23045054118822
ONEWEB-0008             
1 44059U 19010C   21226.12568866 -.00002475  00000-0 -58505-2 0  9993
2 44059  87.6067 249.3589 0002969  35.8706 324.2628 13.23828999118857
ONEWEB-0007             
1 44060U 19010D   21226.53961336 -.00000016  00000-0 -70425-4 0  9995
2 44060  87.9152 249.7501 0002075 114.5854 245.5497 13.22897842118910
ONEWEB-0006             
1 44061U 19010E   21226.47446112  .00000022  00000-0  22361-4 0  9990
2 44061  87.9157 249.7891 0001737  95.7594 264.3738 13.22610139118967
ONEWEB-0011             
1 44062U 19010F   21226.48406287  .00000037  00000-0  58498-4 0  9997
2 44062  87.9162 249.8090 0002466 104.6764 255.4644 13.22328814118979
S5                      
1 44065U 19009D   21226.28773511  .00000002  00000-0  00000+0 0  9996
2 44065   2.0492  90.7792 0004082  37.0833 323.1614  0.99338550  8886
CHINASAT 6C (ZX 6C)     
1 44067U 19012A   21226.62200174 -.00000341  00000-0  00000-0 0  9998
2 44067   0.0670 269.4886 0002424  34.1758  13.5214  1.00270191  9005
WGS 10 (USA 291)        
1 44071U 19014A   21226.36160612  .00000042  00000-0  00000-0 0  9995
2 44071   0.0193 102.9571 0000331 354.0104  56.5344  1.00271446  8909
PRISMA                  
1 44072U 19015A   21226.82452516  .00000107  00000-0  19403-4 0  9998
2 44072  97.8840 300.9321 0001527  84.7447 275.3945 14.83650853129990
TIANLIAN 2-01           
1 44076U 19017A   21226.57064789 -.00000140  00000-0  00000-0 0  9994
2 44076   0.9890 282.4918 0034092 223.4105 102.7523  1.00271084  8885
EMISAT                  
1 44078U 19018A   21226.74480810  .00000011  00000-0  16143-4 0  9998
2 44078  98.4848 283.4462 0019047 152.0064 208.2155 14.43653997125039
FLOCK 4A-2              
1 44080U 19018C   21226.63380834  .00001532  00000-0  63742-4 0  9990
2 44080  97.3571 286.6609 0013937 113.1298 247.1411 15.25196869131844
FLOCK 4A-3              
1 44081U 19018D   21226.60938080  .00003030  00000-0  12331-3 0  9992
2 44081  97.3569 286.6740 0013785 114.7446 245.5228 15.25192517131845
ASTROCAST 0.2           
1 44083U 19018F   21226.40077895  .00001351  00000-0  60677-4 0  9991
2 44083  97.3686 286.3905 0014231 125.0172 235.2403 15.22793424131713
LEMUR-2-JOHANLORAN      
1 44084U 19018G   21226.43807607  .00003461  00000-0  13623-3 0  9999
2 44084  97.3587 287.2141 0014137 116.9032 243.3653 15.26211834131851
LEMUR-2-BEAUDACIOUS     
1 44085U 19018H   21226.44060963  .00002953  00000-0  11894-3 0  9990
2 44085  97.3582 286.8830 0014201 118.7745 241.4922 15.25552858131839
LEMUR-2-ELHAM           
1 44086U 19018J   21226.40923058  .00003409  00000-0  13387-3 0  9996
2 44086  97.3604 287.4871 0014176 117.4585 242.8097 15.26301495131867
LEMUR-2-VICTOR-ANDREW   
1 44087U 19018K   21226.43923818  .00003373  00000-0  13173-3 0  9997
2 44087  97.3608 287.6073 0014033 117.9080 242.3582 15.26487970131873
FLOCK 4A-17             
1 44088U 19018L   21226.60197452  .00003125  00000-0  12703-3 0  9997
2 44088  97.3582 286.9497 0014240 119.2433 241.0230 15.25204630131846
FLOCK 4A-19             
1 44090U 19018N   21226.62681404  .00001162  00000-0  49026-4 0  9995
2 44090  97.3583 287.0552 0014220 119.8371 240.4282 15.25202136131859
FLOCK 4A-6              
1 44094U 19018S   21226.61864997  .00003254  00000-0  13247-3 0  9997
2 44094  97.3587 287.1295 0011814 123.9172 236.3191 15.25147611131863
FLOCK 4A-5              
1 44095U 19018T   21226.60026310  .00001160  00000-0  49294-4 0  9992
2 44095  97.3588 287.1529 0012063 123.0703 237.1695 15.24971574131852
FLOCK 4A-11             
1 44096U 19018U   21226.59335993  .00003059  00000-0  12483-3 0  9999
2 44096  97.3592 287.1862 0012081 126.0966 234.1393 15.25112645131851
FLOCK 4A-9              
1 44098U 19018W   21226.58522907  .00002001  00000-0  82588-4 0  9993
2 44098  97.3589 287.1947 0012362 128.0925 232.1430 15.25126285131857
FLOCK 4A-16             
1 44099U 19018X   21226.64348805  .00001481  00000-0  61782-4 0  9998
2 44099  97.3589 287.2138 0012408 128.1557 232.0801 15.25175385131861
AISTECHSAT-3            
1 44103U 19018AB  21226.83970328  .00000997  00000-0  43686-4 0  9990
2 44103  97.3551 287.2351 0014354 133.6554 337.6149 15.24241593131909
AIS & APRS & ARIS & R/B 
1 44104U 19018AC  21226.46743102  .00001423  00000-0  46014-4 0  9991
2 44104  97.4232 303.8915 0057329 147.4649 213.0147 15.32252881132553
BLUEWALKER 1            
1 44105U 19018AD  21226.70169157  .00002142  00000-0  66505-4 0  9997
2 44105  97.4352 305.8494 0056276 150.6599 209.7823 15.32989234132621
M6P                     
1 44109U 19018AF  21226.18328572  .00002753  00000-0  83964-4 0  9997
2 44109  97.4238 303.5785 0056252 146.0014 214.4853 15.33283036132300
O3B FM20                
1 44112U 19020A   21226.57956360 -.00000016  00000-0  00000-0 0  9996
2 44112   0.0500   3.5403 0002484 129.6899 226.7902  5.00115645 43132
O3B FM19                
1 44113U 19020B   21225.76735986 -.00000015  00000-0  00000-0 0  9995
2 44113   0.0428 326.0722 0001357 175.8842 218.0528  5.00115328 42964
O3B FM17                
1 44114U 19020C   21226.28705426 -.00000016  00000-0  00000-0 0  9991
2 44114   0.0540  25.1993 0002530 115.4265 219.3924  5.00115166 43088
O3B FM18                
1 44115U 19020D   21226.03391397 -.00000016  00000-0  00000-0 0  9993
2 44115   0.0501   3.1354 0002685 139.4459 217.4371  5.00115521 43186
ARABSAT-6A              
1 44186U 19021A   21226.56070300  .00000149  00000-0  00000-0 0  9994
2 44186   0.0496 324.9862 0004125 243.7325 346.8117  1.00274428  8440
BEIDOU-3 IGSO-1         
1 44204U 19023A   21226.43412370 -.00000202  00000-0  00000-0 0  9991
2 44204  56.1027  56.2838 0019674 187.9380 349.2058  1.00278239  8632
TIANHUI 2-01A           
1 44207U 19024A   21226.39586604  .00000321  00000-0  19686-4 0  9997
2 44207  97.4541 230.7502 0001865  86.5447  50.1397 15.16763714126939
TIANHUI 2-01B           
1 44209U 19024A   21226.90970110  .00000089  00000-0  78647-5 0  9999
2 44209  97.4548 231.2568 0001795  93.9757 326.6300 15.16762071127014
